[
    {
        "Altitude(m)": 622200.081522011,
        "Argument of Periapsis(deg)": 0.0,
        "Eccentricity": 0.0,
        "Inclination(deg)": 60.0,
        "Latitude(deg)": -52.162467353872216,
        "Longitude(deg)": 62.36083474833469,
        "Mean Anomaly(deg)": -65.45449999999998,
        "RAAN(deg)": 210.0,
        "Satellite Name": "Test1 942",
        "Satellite Number": 942,
        "Semi-Major Axis(m)": 6980739.136638005,
        "Time(s)": 0
    },
    {
        "Altitude(m)": 622058.2488807869,
        "Argument of Periapsis(deg)": 0.00010418945913296404,
        "Eccentricity": 0.0,
        "Inclination(deg)": 60.0,
        "Latitude(deg)": -51.79921614806727,
        "Longitude(deg)": 63.12889035577531,
        "Mean Anomaly(deg)": -64.83439385453813,
        "RAAN(deg)": 209.99957995086027,
        "Satellite Name": "Test1 942",
        "Satellite Number": 942,
        "Semi-Major Axis(m)": 6980739.136638005,
        "Time(s)": 10
    },
    {
        "Altitude(m)": 621913.6829634045,
        "Argument of Periapsis(deg)": 0.0002083789182659281,
        "Eccentricity": 0.0,
        "Inclination(deg)": 60.0,
        "Latitude(deg)": -51.43045339238847,
        "Longitude(deg)": 63.88396723555834,
        "Mean Anomaly(deg)": -64.2142877090763,
        "RAAN(deg)": 209.99915990172056,
        "Satellite Name": "Test1 942",
        "Satellite Number": 942,
        "Semi-Major Axis(m)": 6980739.136638005,
        "Time(s)": 20
    },
    {
        "Altitude(m)": 621766.4402093943,
        "Argument of Periapsis(deg)": 0.00031256837739889213,
        "Eccentricity": 0.0,
        "Inclination(deg)": 60.0,
        "Latitude(deg)": -51.05633620681163,
        "Longitude(deg)": 64.62625508568541,
        "Mean Anomaly(deg)": -63.59418156361444,
        "RAAN(deg)": 209.99873985258077,
        "Satellite Name": "Test1 942",
        "Satellite Number": 942,
        "Semi-Major Axis(m)": 6980739.136638005,
        "Time(s)": 30
    },
    {
        "Altitude(m)": 621616.5780746985,
        "Argument of Periapsis(deg)": 0.0004167578365318562,
        "Eccentricity": 0.0,
        "Inclination(deg)": 60.0,
        "Latitude(deg)": -50.677018020784125,
        "Longitude(deg)": 65.35595136946853,
        "Mean Anomaly(deg)": -62.974075418152715,
        "RAAN(deg)": 209.99831980344106,
        "Satellite Name": "Test1 942",
        "Satellite Number": 942,
        "Semi-Major Axis(m)": 6980739.136638005,
        "Time(s)": 40
    },
    {
        "Altitude(m)": 621464.15500705,
        "Argument of Periapsis(deg)": 0.0005209472956648203,
        "Eccentricity": 0.0,
        "Inclination(deg)": 60.0,
        "Latitude(deg)": -50.29264854622377,
        "Longitude(deg)": 66.07325926570796,
        "Mean Anomaly(deg)": -62.353969272690875,
        "RAAN(deg)": 209.9978997543013,
        "Satellite Name": "Test1 942",
        "Satellite Number": 942,
        "Semi-Major Axis(m)": 6980739.136638005,
        "Time(s)": 50
    },
    {
        "Altitude(m)": 621309.2304209273,
        "Argument of Periapsis(deg)": 0.0006251367547977843,
        "Eccentricity": 0.0,
        "Inclination(deg)": 60.0,
        "Latitude(deg)": -49.9033737650704,
        "Longitude(deg)": 66.77838720108655,
        "Mean Anomaly(deg)": -61.733863127229036,
        "RAAN(deg)": 209.99747970516154,
        "Satellite Name": "Test1 942",
        "Satellite Number": 942,
        "Semi-Major Axis(m)": 6980739.136638005,
        "Time(s)": 60
    },
    {
        "Altitude(m)": 621151.8646720839,
        "Argument of Periapsis(deg)": 0.0007293262139307483,
        "Eccentricity": 0.0,
        "Inclination(deg)": 60.0,
        "Latitude(deg)": -49.50933592998849,
        "Longitude(deg)": 67.4715484505057,
        "Mean Anomaly(deg)": -61.113756981767196,
        "RAAN(deg)": 209.9970596560218,
        "Satellite Name": "Test1 942",
        "Satellite Number": 942,
        "Semi-Major Axis(m)": 6980739.136638005,
        "Time(s)": 70
    },
    {
        "Altitude(m)": 620992.1190316306,
        "Argument of Periapsis(deg)": 0.0008335156730637124,
        "Eccentricity": 0.0,
        "Inclination(deg)": 60.0,
        "Latitude(deg)": -49.11067357688996,
        "Longitude(deg)": 68.1529592906695,
        "Mean Anomaly(deg)": -60.493650836305356,
        "RAAN(deg)": 209.9966396068821,
        "Satellite Name": "Test1 942",
        "Satellite Number": 942,
        "Semi-Major Axis(m)": 6980739.136638005,
        "Time(s)": 80
    },
    {
        "Altitude(m)": 620830.0556597225,
        "Argument of Periapsis(deg)": 0.0009377051321966765,
        "Eccentricity": 0.0,
        "Inclination(deg)": 60.0,
        "Latitude(deg)": -48.70752154801431,
        "Longitude(deg)": 68.82283873050127,
        "Mean Anomaly(deg)": -59.87354469084352,
        "RAAN(deg)": 209.99621955774234,
        "Satellite Name": "Test1 942",
        "Satellite Number": 942,
        "Semi-Major Axis(m)": 6980739.136638005,
        "Time(s)": 90
    },
    {
        "Altitude(m)": 620665.7375788454,
        "Argument of Periapsis(deg)": 0.0010418945913296407,
        "Eccentricity": 0.0,
        "Inclination(deg)": 60.0,
        "Latitude(deg)": -48.300011024384496,
        "Longitude(deg)": 69.48140830310587,
        "Mean Anomaly(deg)": -59.25343854538168,
        "RAAN(deg)": 209.99579950860257,
        "Satellite Name": "Test1 942",
        "Satellite Number": 942,
        "Semi-Major Axis(m)": 6980739.136638005,
        "Time(s)": 100
    },
    {
        "Altitude(m)": 620499.2286466851,
        "Argument of Periapsis(deg)": 0.0011460840504626045,
        "Eccentricity": 0.0,
        "Inclination(deg)": 60.0,
        "Latitude(deg)": -47.8882695665319,
        "Longitude(deg)": 70.12889040378975,
        "Mean Anomaly(deg)": -58.63333239991982,
        "RAAN(deg)": 209.99537945946284,
        "Satellite Name": "Test1 942",
        "Satellite Number": 942,
        "Semi-Major Axis(m)": 6980739.136638005,
        "Time(s)": 110
    },
    {
        "Altitude(m)": 620330.5935286406,
        "Argument of Periapsis(deg)": 0.0012502735095955685,
        "Eccentricity": 0.0,
        "Inclination(deg)": 60.0,
        "Latitude(deg)": -47.472421162457906,
        "Longitude(deg)": 70.76550819712462,
        "Mean Anomaly(deg)": -58.013226254458,
        "RAAN(deg)": 209.99495941032313,
        "Satellite Name": "Test1 942",
        "Satellite Number": 942,
        "Semi-Major Axis(m)": 6980739.136638005,
        "Time(s)": 120
    },
    {
        "Altitude(m)": 620159.8976699578,
        "Argument of Periapsis(deg)": 0.0013544629687285324,
        "Eccentricity": 0.0,
        "Inclination(deg)": 60.0,
        "Latitude(deg)": -47.05258628187722,
        "Longitude(deg)": 71.39148557733624,
        "Mean Anomaly(deg)": -57.39312010899614,
        "RAAN(deg)": 209.99453936118337,
        "Satellite Name": "Test1 942",
        "Satellite Number": 942,
        "Semi-Major Axis(m)": 6980739.136638005,
        "Time(s)": 130
    },
    {
        "Altitude(m)": 619987.2072675013,
        "Argument of Periapsis(deg)": 0.0014586524278614966,
        "Eccentricity": 0.0,
        "Inclination(deg)": 60.0,
        "Latitude(deg)": -46.62888193586298,
        "Longitude(deg)": 72.00704566625221,
        "Mean Anomaly(deg)": -56.77301396353432,
        "RAAN(deg)": 209.9941193120436,
        "Satellite Name": "Test1 942",
        "Satellite Number": 942,
        "Semi-Major Axis(m)": 6980739.136638005,
        "Time(s)": 140
    },
    {
        "Altitude(m)": 619812.589241183,
        "Argument of Periapsis(deg)": 0.0015628418869944607,
        "Eccentricity": 0.0,
        "Inclination(deg)": 60.0,
        "Latitude(deg)": -46.201421741079926,
        "Longitude(deg)": 72.61241087164153,
        "Mean Anomaly(deg)": -56.15290781807257,
        "RAAN(deg)": 209.99369926290387,
        "Satellite Name": "Test1 942",
        "Satellite Number": 942,
        "Semi-Major Axis(m)": 6980739.136638005,
        "Time(s)": 150
    },
    {
        "Altitude(m)": 619636.1112050519,
        "Argument of Periapsis(deg)": 0.0016670313461274247,
        "Eccentricity": 0.0,
        "Inclination(deg)": 60.0,
        "Latitude(deg)": -45.77031598786491,
        "Longitude(deg)": 73.20780299018722,
        "Mean Anomaly(deg)": -55.53280167261064,
        "RAAN(deg)": 209.99327921376417,
        "Satellite Name": "Test1 942",
        "Satellite Number": 942,
        "Semi-Major Axis(m)": 6980739.136638005,
        "Time(s)": 160
    },
    {
        "Altitude(m)": 619457.8414380653,
        "Argument of Periapsis(deg)": 0.0017712208052603888,
        "Eccentricity": 0.0,
        "Inclination(deg)": 60.0,
        "Latitude(deg)": -45.335671711480025,
        "Longitude(deg)": 73.79344183937432,
        "Mean Anomaly(deg)": -54.91269552714889,
        "RAAN(deg)": 209.9928591646244,
        "Satellite Name": "Test1 942",
        "Satellite Number": 942,
        "Semi-Major Axis(m)": 6980739.136638005,
        "Time(s)": 170
    },
    {
        "Altitude(m)": 619277.8488545292,
        "Argument of Periapsis(deg)": 0.001875410264393353,
        "Eccentricity": 0.0,
        "Inclination(deg)": 60.0,
        "Latitude(deg)": -44.897592765917985,
        "Longitude(deg)": 74.36954544125831,
        "Mean Anomaly(deg)": -54.29258938168706,
        "RAAN(deg)": 209.99243911548464,
        "Satellite Name": "Test1 942",
        "Satellite Number": 942,
        "Semi-Major Axis(m)": 6980739.136638005,
        "Time(s)": 180
    },
    {
        "Altitude(m)": 619096.2029742717,
        "Argument of Periapsis(deg)": 0.0019795997235263173,
        "Eccentricity": 0.0,
        "Inclination(deg)": 60.0,
        "Latitude(deg)": -44.45617989970879,
        "Longitude(deg)": 74.93633024254157,
        "Mean Anomaly(deg)": -53.672483236225204,
        "RAAN(deg)": 209.9920190663449,
        "Satellite Name": "Test1 942",
        "Satellite Number": 942,
        "Semi-Major Axis(m)": 6980739.136638005,
        "Time(s)": 190
    }
]